GLOBALSTAR M024         
1 25883U 99043A   24177.81291359 -.00000040  00000+0  87735-3 0  9997
2 25883  52.0006 104.7199 0001145 260.8451 139.5776 11.10156211 75288
GLOBALSTAR M027         
1 25884U 99043B   24177.24307748 -.00000046  00000+0  67838-3 0  9993
2 25884  52.0174 173.8762 0021037 135.3414 224.9077 11.04368954101808
GLOBALSTAR M054         
1 25885U 99043C   24177.81257227 -.00000037  00000+0  86950-3 0  9999
2 25885  52.0163 359.7129 0004186 296.0139 164.9880 11.39204124 78437
GLOBALSTAR M053         
1 25886U 99043D   24177.65514299 -.00000029  00000+0  11479-2 0  9991
2 25886  51.9996 287.4060 0003925 189.8191 280.1285 11.27656239 79221
GLOBALSTAR M058         
1 25907U 99049A   24177.94676106 -.00000141  00000+0 -75996-3 0  9990
2 25907  51.9965 340.4158 0001593 321.5653  38.5068 11.93181580110221
GLOBALSTAR M050         
1 25908U 99049B   24177.84945549 -.00000093  00000+0 -48290-4 0  9994
2 25908  52.0008  14.9732 0009748  45.5553  56.6902 12.07434594105140
GLOBALSTAR M033         
1 25909U 99049C   24177.63261000 -.00000092  00000+0 -50461-5 0  9998
2 25909  51.9914 272.0321 0012245 251.4972 108.4544 12.20273313492215
